{
  "type": "FeatureCollection",
  "features": [
    {
      "type": "Feature",
      "properties": {
        "norad_id": 32184,
        "name": "FENGYUN 1C DEB",
        "group": "fengyun-1c-debris",
        "lat": 1.6066809968424056,
        "lon": 136.6451475520434,
        "alt_km": 402.00154808726256,
        "timestamp": "2025-12-22T09:53:37.687422+00:00",
        "meta_object_name": "FENGYUN 1C DEB",
        "meta_object_id": "1999-025CUE",
        "meta_epoch": "2025-12-21T15:14:10.295232",
        "meta_mean_motion": 15.45104131,
        "meta_eccentricity": 0.0069258,
        "meta_inclination": 98.1185,
        "meta_ra_of_asc_node": 136.0058,
        "meta_arg_of_pericenter": 316.4203,
        "meta_mean_anomaly": 43.1584,
        "meta_ephemeris_type": 0,
        "meta_classification_type": "U",
        "meta_norad_cat_id": 32184,
        "meta_element_set_no": 999,
        "meta_rev_at_epoch": 98541,
        "meta_bstar": 0.0014326,
        "meta_mean_motion_dot": 0.00074731,
        "meta_mean_motion_ddot": 0,
        "tle_line1": "1 32184U 99025CUE 25355.63484138  .00074731  00000+0  14326-2 0  9999",
        "tle_line2": "2 32184  98.1185 136.0058 0069258 316.4203  43.1584 15.45104131985411"
      },
      "geometry": {
        "type": "Point",
        "coordinates": [
          136.6451475520434,
          1.6066809968424056
        ]
      }
    },
    {
      "type": "Feature",
      "properties": {
        "norad_id": 32185,
        "name": "FENGYUN 1C DEB",
        "group": "fengyun-1c-debris",
        "lat": -69.87618974998294,
        "lon": -1.1972494183386073,
        "alt_km": 562.7399693496864,
        "timestamp": "2025-12-22T09:53:37.687431+00:00",
        "meta_object_name": "FENGYUN 1C DEB",
        "meta_object_id": "1999-025CUF",
        "meta_epoch": "2025-12-22T00:47:09.379680",
        "meta_mean_motion": 15.0435873,
        "meta_eccentricity": 0.015933,
        "meta_inclination": 98.9039,
        "meta_ra_of_asc_node": 203.6972,
        "meta_arg_of_pericenter": 345.1114,
        "meta_mean_anomaly": 14.5444,
        "meta_ephemeris_type": 0,
        "meta_classification_type": "U",
        "meta_norad_cat_id": 32185,
        "meta_element_set_no": 999,
        "meta_rev_at_epoch": 95155,
        "meta_bstar": 0.0030644,
        "meta_mean_motion_dot": 0.00057016,
        "meta_mean_motion_ddot": 0,
        "tle_line1": "1 32185U 99025CUF 25356.03274745  .00057016  00000+0  30644-2 0  9994",
        "tle_line2": "2 32185  98.9039 203.6972 0159330 345.1114  14.5444 15.04358730951551"
      },
      "geometry": {
        "type": "Point",
        "coordinates": [
          -1.1972494183386073,
          -69.87618974998294
        ]
      }
    },
    {
      "type": "Feature",
      "properties": {
        "norad_id": 32186,
        "name": "FENGYUN 1C DEB",
        "group": "fengyun-1c-debris",
        "lat": 65.44237782193503,
        "lon": 25.24178601238563,
        "alt_km": 1027.8824632313508,
        "timestamp": "2025-12-22T09:53:37.687441+00:00",
        "meta_object_name": "FENGYUN 1C DEB",
        "meta_object_id": "1999-025CUG",
        "meta_epoch": "2025-12-19T21:20:47.164128",
        "meta_mean_motion": 13.76525213,
        "meta_eccentricity": 0.0274757,
        "meta_inclination": 99.6083,
        "meta_ra_of_asc_node": 44.4519,
        "meta_arg_of_pericenter": 182.1243,
        "meta_mean_anomaly": 353.0347,
        "meta_ephemeris_type": 0,
        "meta_classification_type": "U",
        "meta_norad_cat_id": 32186,
        "meta_element_set_no": 999,
        "meta_rev_at_epoch": 62708,
        "meta_bstar": 0.00063621,
        "meta_mean_motion_dot": 7.77e-06,
        "meta_mean_motion_ddot": 0,
        "tle_line1": "1 32186U 99025CUG 25353.88943477  .00000777  00000+0  63621-3 0  9994",
        "tle_line2": "2 32186  99.6083  44.4519 0274757 182.1243 353.0347 13.76525213627080"
      },
      "geometry": {
        "type": "Point",
        "coordinates": [
          25.24178601238563,
          65.44237782193503
        ]
      }
    },
    {
      "type": "Feature",
      "properties": {
        "norad_id": 32187,
        "name": "FENGYUN 1C DEB",
        "group": "fengyun-1c-debris",
        "lat": 46.6746158625583,
        "lon": 64.71521187318008,
        "alt_km": 1000.3608078048956,
        "timestamp": "2025-12-22T09:53:37.687451+00:00",
        "meta_object_name": "FENGYUN 1C DEB",
        "meta_object_id": "1999-025CUH",
        "meta_epoch": "2025-12-22T04:28:26.606784",
        "meta_mean_motion": 13.50503481,
        "meta_eccentricity": 0.02942,
        "meta_inclination": 99.5061,
        "meta_ra_of_asc_node": 74.7318,
        "meta_arg_of_pericenter": 122.3,
        "meta_mean_anomaly": 271.1803,
        "meta_ephemeris_type": 0,
        "meta_classification_type": "U",
        "meta_norad_cat_id": 32187,
        "meta_element_set_no": 999,
        "meta_rev_at_epoch": 66386,
        "meta_bstar": 0.00040709,
        "meta_mean_motion_dot": 3.02e-06,
        "meta_mean_motion_ddot": 0,
        "tle_line1": "1 32187U 99025CUH 25356.18641906  .00000302  00000+0  40709-3 0  9999",
        "tle_line2": "2 32187  99.5061  74.7318 0294200 122.3000 271.1803 13.50503481663869"
      },
      "geometry": {
        "type": "Point",
        "coordinates": [
          64.71521187318008,
          46.6746158625583
        ]
      }
    },
    {
      "type": "Feature",
      "properties": {
        "norad_id": 32191,
        "name": "FENGYUN 1C DEB",
        "group": "fengyun-1c-debris",
        "lat": -59.52589894779416,
        "lon": -142.6489439541149,
        "alt_km": 804.5811291650134,
        "timestamp": "2025-12-22T09:53:37.687461+00:00",
        "meta_object_name": "FENGYUN 1C DEB",
        "meta_object_id": "1999-025CUM",
        "meta_epoch": "2025-12-21T20:58:51.047616",
        "meta_mean_motion": 14.25250434,
        "meta_eccentricity": 0.0093992,
        "meta_inclination": 98.7058,
        "meta_ra_of_asc_node": 51.9104,
        "meta_arg_of_pericenter": 160.2974,
        "meta_mean_anomaly": 200.1876,
        "meta_ephemeris_type": 0,
        "meta_classification_type": "U",
        "meta_norad_cat_id": 32191,
        "meta_element_set_no": 999,
        "meta_rev_at_epoch": 64631,
        "meta_bstar": 0.0012815,
        "meta_mean_motion_dot": 3.114e-05,
        "meta_mean_motion_ddot": 0,
        "tle_line1": "1 32191U 99025CUM 25355.87420194  .00003114  00000+0  12815-2 0  9993",
        "tle_line2": "2 32191  98.7058  51.9104 0093992 160.2974 200.1876 14.25250434646310"
      },
      "geometry": {
        "type": "Point",
        "coordinates": [
          -142.6489439541149,
          -59.52589894779416
        ]
      }
    },
    {
      "type": "Feature",
      "properties": {
        "norad_id": 32192,
        "name": "FENGYUN 1C DEB",
        "group": "fengyun-1c-debris",
        "lat": -28.303534396544325,
        "lon": -128.7873990653558,
        "alt_km": 1089.3737474238624,
        "timestamp": "2025-12-22T09:53:37.687471+00:00",
        "meta_object_name": "FENGYUN 1C DEB",
        "meta_object_id": "1999-025CUN",
        "meta_epoch": "2025-12-21T02:46:17.985216",
        "meta_mean_motion": 13.82517651,
        "meta_eccentricity": 0.01820594,
        "meta_inclination": 98.6524,
        "meta_ra_of_asc_node": 225.3173,
        "meta_arg_of_pericenter": 139.7222,
        "meta_mean_anomaly": 221.7586,
        "meta_ephemeris_type": 0,
        "meta_classification_type": "U",
        "meta_norad_cat_id": 32192,
        "meta_element_set_no": 999,
        "meta_rev_at_epoch": 92828,
        "meta_bstar": 0.00024010714,
        "meta_mean_motion_dot": 2.58e-06,
        "meta_mean_motion_ddot": 0,
        "tle_line1": "1 32192U 99025CUN 25355.11548594  .00000258  00000+0  24011-3 0  9994",
        "tle_line2": "2 32192  98.6524 225.3173 0182059 139.7222 221.7586 13.82517651928286"
      },
      "geometry": {
        "type": "Point",
        "coordinates": [
          -128.7873990653558,
          -28.303534396544325
        ]
      }
    },
    {
      "type": "Feature",
      "properties": {
        "norad_id": 32195,
        "name": "FENGYUN 1C DEB",
        "group": "fengyun-1c-debris",
        "lat": 56.693090905507866,
        "lon": -15.033111099888716,
        "alt_km": 899.5971079996234,
        "timestamp": "2025-12-22T09:53:37.687480+00:00",
        "meta_object_name": "FENGYUN 1C DEB",
        "meta_object_id": "1999-025CUR",
        "meta_epoch": "2025-12-19T06:36:10.601280",
        "meta_mean_motion": 14.08477506,
        "meta_eccentricity": 0.0068472,
        "meta_inclination": 98.7727,
        "meta_ra_of_asc_node": 355.5085,
        "meta_arg_of_pericenter": 281.675,
        "meta_mean_anomaly": 77.6742,
        "meta_ephemeris_type": 0,
        "meta_classification_type": "U",
        "meta_norad_cat_id": 32195,
        "meta_element_set_no": 999,
        "meta_rev_at_epoch": 64074,
        "meta_bstar": 0.00040898,
        "meta_mean_motion_dot": 6.73e-06,
        "meta_mean_motion_ddot": 0,
        "tle_line1": "1 32195U 99025CUR 25353.27512270  .00000673  00000+0  40898-3 0  9996",
        "tle_line2": "2 32195  98.7727 355.5085 0068472 281.6750  77.6742 14.08477506640745"
      },
      "geometry": {
        "type": "Point",
        "coordinates": [
          -15.033111099888716,
          56.693090905507866
        ]
      }
    }
  ]
}